{
  "norad_id": 67144,
  "name": "KUIPER-00196",
  "history": [
    {
      "epoch": "2026-03-28T22:20:02.330592Z",
      "apogee_km": 456.2559090224886,
      "perigee_km": 450.4998112316416,
      "latitude_deg": -2.6138325925888755e-05,
      "longitude_deg": 170.34600886466475,
      "height_km": 453.7620171904079,
      "semi_major_axis_km": 6831.514860127065,
      "eccentricity": 0.00042129,
      "inclination_deg": 51.873,
      "raan_deg": 331.6997,
      "arg_perigee_deg": 82.5599,
      "mean_anomaly_deg": 277.5866,
      "mean_motion_rev_day": 15.37542878
    },
    {
      "epoch": "2026-03-29T01:27:13.837248Z",
      "apogee_km": 456.1837009660312,
      "perigee_km": 450.4999105996203,
      "latitude_deg": -1.6273757787251312e-06,
      "longitude_deg": 122.79305538041585,
      "height_km": 453.60407524872113,
      "semi_major_axis_km": 6831.4788057828255,
      "eccentricity": 0.000416,
      "inclination_deg": 51.8727,
      "raan_deg": 331.0728,
      "arg_perigee_deg": 79.9757,
      "mean_anomaly_deg": 280.1699,
      "mean_motion_rev_day": 15.3755505
    },
    {
      "epoch": "2026-03-30T00:51:08.536608Z",
      "apogee_km": 455.956535783248,
      "perigee_km": 450.3603385611159,
      "latitude_deg": -4.126426476528095e-05,
      "longitude_deg": 126.13656757819918,
      "height_km": 453.5738904685384,
      "semi_major_axis_km": 6831.295437172182,
      "eccentricity": 0.0004096,
      "inclination_deg": 51.8723,
      "raan_deg": 326.3552,
      "arg_perigee_deg": 82.9892,
      "mean_anomaly_deg": 277.156,
      "mean_motion_rev_day": 15.37616958
    }
  ]
}